2025-313BC              
1 67298U 25313BC  26068.18968176  .00075331  00000+0  26410-2 0  9997
2 67298  97.3985 144.8110 0008478 328.9209  31.1528 15.29126358  7890
STARLINK-36491          
1 67310U 26002F   26068.41139569  .00036259  00000+0  13209-2 0  9998
2 67310  42.9986 327.0738 0000871 293.9066  66.1694 15.27574029 11037
